CCSDS_OMM_VERS = 2.0
CREATION_DATE  = 
ORIGINATOR     = 

OBJECT_NAME    = CZ-2C R/B
OBJECT_ID      = 2022-132E
CENTER_NAME    = EARTH
REF_FRAME      = TEME
TIME_SYSTEM    = UTC
MEAN_ELEMENT_THEORY = SGP/SGP4

EPOCH          = 2025-12-29T23:27:39.038688
MEAN_MOTION    = 15.55935241
ECCENTRICITY   = .0020027
INCLINATION    = 97.2947
RA_OF_ASC_NODE = 0.5193
ARG_OF_PERICENTER = 357.3049
MEAN_ANOMALY   = 2.8094

EPHEMERIS_TYPE = 0
CLASSIFICATION_TYPE = U
NORAD_CAT_ID   = 54039
ELEMENT_SET_NO = 999
REV_AT_EPOCH   = 17951
BSTAR          = .61609E-3
MEAN_MOTION_DOT = .43185E-3
MEAN_MOTION_DDOT = 0

CCSDS_OMM_VERS = 2.0
CREATION_DATE  = 
ORIGINATOR     = 

OBJECT_NAME    = GSLV R/B
OBJECT_ID      = 2022-138AN
CENTER_NAME    = EARTH
REF_FRAME      = TEME
TIME_SYSTEM    = UTC
MEAN_ELEMENT_THEORY = SGP/SGP4

EPOCH          = 2025-12-30T01:04:04.819872
MEAN_MOTION    = 14.96225974
ECCENTRICITY   = .0023602
INCLINATION    = 87.3821
RA_OF_ASC_NODE = 189.6775
ARG_OF_PERICENTER = 48.9100
MEAN_ANOMALY   = 311.4164

EPHEMERIS_TYPE = 0
CLASSIFICATION_TYPE = U
NORAD_CAT_ID   = 54149
ELEMENT_SET_NO = 999
REV_AT_EPOCH   = 17351
BSTAR          = .36444E-3
MEAN_MOTION_DOT = .416E-4
MEAN_MOTION_DDOT = 0

CCSDS_OMM_VERS = 2.0
CREATION_DATE  = 
ORIGINATOR     = 

OBJECT_NAME    = XRISM
OBJECT_ID      = 2023-137A
CENTER_NAME    = EARTH
REF_FRAME      = TEME
TIME_SYSTEM    = UTC
MEAN_ELEMENT_THEORY = SGP/SGP4

EPOCH          = 2025-12-30T01:58:22.766016
MEAN_MOTION    = 15.10540393
ECCENTRICITY   = .0007552
INCLINATION    = 31.0035
RA_OF_ASC_NODE = 13.5607
ARG_OF_PERICENTER = 60.9838
MEAN_ANOMALY   = 299.1556

EPHEMERIS_TYPE = 0
CLASSIFICATION_TYPE = U
NORAD_CAT_ID   = 57800
ELEMENT_SET_NO = 999
REV_AT_EPOCH   = 12725
BSTAR          = .54784E-3
MEAN_MOTION_DOT = .9363E-4
MEAN_MOTION_DDOT = 0

CCSDS_OMM_VERS = 2.0
CREATION_DATE  = 
ORIGINATOR     = 

OBJECT_NAME    = ACS3
OBJECT_ID      = 2024-077B
CENTER_NAME    = EARTH
REF_FRAME      = TEME
TIME_SYSTEM    = UTC
MEAN_ELEMENT_THEORY = SGP/SGP4

EPOCH          = 2025-12-30T03:40:36.961248
MEAN_MOTION    = 13.86391233
ECCENTRICITY   = .0072114
INCLINATION    = 97.2552
RA_OF_ASC_NODE = 315.8684
ARG_OF_PERICENTER = 294.8863
MEAN_ANOMALY   = 64.4815

EPHEMERIS_TYPE = 0
CLASSIFICATION_TYPE = U
NORAD_CAT_ID   = 59588
ELEMENT_SET_NO = 999
REV_AT_EPOCH   = 8455
BSTAR          = .3508E-1
MEAN_MOTION_DOT = .41648E-3
MEAN_MOTION_DDOT = 0

CCSDS_OMM_VERS = 2.0
CREATION_DATE  = 
ORIGINATOR     = 

OBJECT_NAME    = SZ-21 MODULE
OBJECT_ID      = 2025-246C
CENTER_NAME    = EARTH
REF_FRAME      = TEME
TIME_SYSTEM    = UTC
MEAN_ELEMENT_THEORY = SGP/SGP4

EPOCH          = 2025-12-30T02:40:19.336224
MEAN_MOTION    = 15.63480572
ECCENTRICITY   = .0003305
INCLINATION    = 41.4763
RA_OF_ASC_NODE = 270.0034
ARG_OF_PERICENTER = 356.9568
MEAN_ANOMALY   = 3.1251

EPHEMERIS_TYPE = 0
CLASSIFICATION_TYPE = U
NORAD_CAT_ID   = 66515
ELEMENT_SET_NO = 999
REV_AT_EPOCH   = 716
BSTAR          = .40775E-3
MEAN_MOTION_DOT = .38668E-3
MEAN_MOTION_DDOT = 0

