CZ-2C R/B               
1 54039U 22132E   25363.97753517  .00043185  00000+0  61609-3 0  9999
2 54039  97.2947   0.5193 0020027 357.3049   2.8094 15.55935241179517
GSLV R/B                
1 54149U 22138AN  25364.04450023  .00004160  00000+0  36444-3 0  9991
2 54149  87.3821 189.6775 0023602  48.9100 311.4164 14.96225974173518
XRISM                   
1 57800U 23137A   25364.08220794  .00009363  00000+0  54784-3 0  9999
2 57800  31.0035  13.5607 0007552  60.9838 299.1556 15.10540393127254
ACS3                    
1 59588U 24077B   25364.15320557  .00041648  00000+0  35080-1 0  9992
2 59588  97.2552 315.8684 0072114 294.8863  64.4815 13.86391233 84556
SZ-21 MODULE            
1 66515U 25246C   25364.11133491  .00038668  00000+0  40775-3 0  9991
2 66515  41.4763 270.0034 0003305 356.9568   3.1251 15.63480572  7166
